{
  "type": "FeatureCollection",
  "features": [
    {
      "type": "Feature",
      "id": "AFG",
      "properties": {
        "name": "Afghanistan",
        "spend_1988": NaN,
        "spend_2013": 6.24,
        "spend_avg": 2.99
      },
      "geometry": {
        "type": "Polygon",
        "coordinates": [
          [
            [
              61.210817,
              35.650072
            ],
            [
              62.230651,
              35.270664
            ],
            [
              62.984662,
              35.404041
            ],
            [
              63.193538,
              35.857166
            ],
            [
              63.982896,
              36.007957
            ],
            [
              64.546479,
              36.312073
            ],
            [
              64.746105,
              37.111818
            ],
            [
              65.588948,
              37.305217
            ],
            [
              65.745631,
              37.661164
            ],
            [
              66.217385,
              37.39379
            ],
            [
              66.518607,
              37.362784
            ],
            [
              67.075782,
              37.356144
            ],
            [
              67.83,
              37.144994
            ],
            [
              68.135562,
              37.023115
            ],
            [
              68.859446,
              37.344336
            ],
            [
              69.196273,
              37.151144
            ],
            [
              69.518785,
              37.608997
            ],
            [
              70.116578,
              37.588223
            ],
            [
              70.270574,
              37.735165
            ],
            [
              70.376304,
              38.138396
            ],
            [
              70.806821,
              38.486282
            ],
            [
              71.348131,
              38.258905
            ],
            [
              71.239404,
              37.953265
            ],
            [
              71.541918,
              37.905774
            ],
            [
              71.448693,
              37.065645
            ],
            [
              71.844638,
              36.738171
            ],
            [
              72.193041,
              36.948288
            ],
            [
              72.63689,
              37.047558
            ],
            [
              73.260056,
              37.495257
            ],
            [
              73.948696,
              37.421566
            ],
            [
              74.980002,
              37.41999
            ],
            [
              75.158028,
              37.133031
            ],
            [
              74.575893,
              37.020841
            ],
            [
              74.067552,
              36.836176
            ],
            [
              72.920025,
              36.720007
            ],
            [
              71.846292,
              36.509942
            ],
            [
              71.262348,
              36.074388
            ],
            [
              71.498768,
              35.650563
            ],
            [
              71.613076,
              35.153203
            ],
            [
              71.115019,
              34.733126
            ],
            [
              71.156773,
              34.348911
            ],
            [
              70.881803,
              33.988856
            ],
            [
              69.930543,
              34.02012
            ],
            [
              70.323594,
              33.358533
            ],
            [
              69.687147,
              33.105499
            ],
            [
              69.262522,
              32.501944
            ],
            [
              69.317764,
              31.901412
            ],
            [
              68.926677,
              31.620189
            ],
            [
              68.556932,
              31.71331
            ],
            [
              67.792689,
              31.58293
            ],
            [
              67.683394,
              31.303154
            ],
            [
              66.938891,
              31.304911
            ],
            [
              66.381458,
              30.738899
            ],
            [
              66.346473,
              29.887943
            ],
            [
              65.046862,
              29.472181
            ],
            [
              64.350419,
              29.560031
            ],
            [
              64.148002,
              29.340819
            ],
            [
              63.550261,
              29.468331
            ],
            [
              62.549857,
              29.318572
            ],
            [
              60.874248,
              29.829239
            ],
            [
              61.781222,
              30.73585
            ],
            [
              61.699314,
              31.379506
            ],
            [
              60.941945,
              31.548075
            ],
            [
              60.863655,
              32.18292
            ],
            [
              60.536078,
              32.981269
            ],
            [
              60.9637,
              33.528832
            ],
            [
              60.52843,
              33.676446
            ],
            [
              60.803193,
              34.404102
            ],
            [
              61.210817,
              35.650072
            ]
          ]
        ]
      }
    },
    {
      "type": "Feature",
      "id": "ARG",
      "properties": {
        "name": "Argentina",
        "spend_1988": 1.98,
        "spend_2013": 0.74,
        "spend_avg": 1.02
      },
      "geometry": {
        "type": "MultiPolygon",
        "coordinates": [
          [
            [
              [
                -65.5,
                -55.2
              ],
              [
                -66.45,
                -55.25
              ],
              [
                -66.95992,
                -54.89681
              ],
              [
                -67.56244,
                -54.87001
              ],
              [
                -68.63335,
                -54.8695
              ],
              [
                -68.63401,
                -52.63637
              ],
              [
                -68.25,
                -53.1
              ],
              [
                -67.75,
                -53.85
              ],
              [
                -66.45,
                -54.45
              ],
              [
                -65.05,
                -54.7
              ],
              [
                -65.5,
                -55.2
              ]
            ]
          ],
          [
            [
              [
                -64.964892,
                -22.075862
              ],
              [
                -64.377021,
                -22.798091
              ],
              [
                -63.986838,
                -21.993644
              ],
              [
                -62.846468,
                -22.034985
              ],
              [
                -62.685057,
                -22.249029
              ],
              [
                -60.846565,
                -23.880713
              ],
              [
                -60.028966,
                -24.032796
              ],
              [
                -58.807128,
                -24.771459
              ],
              [
                -57.777217,
                -25.16234
              ],
              [
                -57.63366,
                -25.603657
              ],
              [
                -58.618174,
                -27.123719
              ],
              [
                -57.60976,
                -27.395899
              ],
              [
                -56.486702,
                -27.548499
              ],
              [
                -55.695846,
                -27.387837
              ],
              [
                -54.788795,
                -26.621786
              ],
              [
                -54.625291,
                -25.739255
              ],
              [
                -54.13005,
                -25.547639
              ],
              [
                -53.628349,
                -26.124865
              ],
              [
                -53.648735,
                -26.923473
              ],
              [
                -54.490725,
                -27.474757
              ],
              [
                -55.162286,
                -27.881915
              ],
              [
                -56.2909,
                -28.852761
              ],
              [
                -57.625133,
                -30.216295
              ],
              [
                -57.874937,
                -31.016556
              ],
              [
                -58.14244,
                -32.044504
              ],
              [
                -58.132648,
                -33.040567
              ],
              [
                -58.349611,
                -33.263189
              ],
              [
                -58.427074,
                -33.909454
              ],
              [
                -58.495442,
                -34.43149
              ],
              [
                -57.22583,
                -35.288027
              ],
              [
                -57.362359,
                -35.97739
              ],
              [
                -56.737487,
                -36.413126
              ],
              [
                -56.788285,
                -36.901572
              ],
              [
                -57.749157,
                -38.183871
              ],
              [
                -59.231857,
                -38.72022
              ],
              [
                -61.237445,
                -38.928425
              ],
              [
                -62.335957,
                -38.827707
              ],
              [
                -62.125763,
                -39.424105
              ],
              [
                -62.330531,
                -40.172586
              ],
              [
                -62.145994,
                -40.676897
              ],
              [
                -62.745803,
                -41.028761
              ],
              [
                -63.770495,
                -41.166789
              ],
              [
                -64.73209,
                -40.802677
              ],
              [
                -65.118035,
                -41.064315
              ],
              [
                -64.978561,
                -42.058001
              ],
              [
                -64.303408,
                -42.359016
              ],
              [
                -63.755948,
                -42.043687
              ],
              [
                -63.458059,
                -42.563138
              ],
              [
                -64.378804,
                -42.873558
              ],
              [
                -65.181804,
                -43.495381
              ],
              [
                -65.328823,
                -44.501366
              ],
              [
                -65.565269,
                -45.036786
              ],
              [
                -66.509966,
                -45.039628
              ],
              [
                -67.293794,
                -45.551896
              ],
              [
                -67.580546,
                -46.301773
              ],
              [
                -66.597066,
                -47.033925
              ],
              [
                -65.641027,
                -47.236135
              ],
              [
                -65.985088,
                -48.133289
              ],
              [
                -67.166179,
                -48.697337
              ],
              [
                -67.816088,
                -49.869669
              ],
              [
                -68.728745,
                -50.264218
              ],
              [
                -69.138539,
                -50.73251
              ],
              [
                -68.815561,
                -51.771104
              ],
              [
                -68.149995,
                -52.349983
              ],
              [
                -68.571545,
                -52.299444
              ],
              [
                -69.498362,
                -52.142761
              ],
              [
                -71.914804,
                -52.009022
              ],
              [
                -72.329404,
                -51.425956
              ],
              [
                -72.309974,
                -50.67701
              ],
              [
                -72.975747,
                -50.74145
              ],
              [
                -73.328051,
                -50.378785
              ],
              [
                -73.415436,
                -49.318436
              ],
              [
                -72.648247,
                -48.878618
              ],
              [
                -72.331161,
                -48.244238
              ],
              [
                -72.447355,
                -47.738533
              ],
              [
                -71.917258,
                -46.884838
              ],
              [
                -71.552009,
                -45.560733
              ],
              [
                -71.659316,
                -44.973689
              ],
              [
                -71.222779,
                -44.784243
              ],
              [
                -71.329801,
                -44.407522
              ],
              [
                -71.793623,
                -44.207172
              ],
              [
                -71.464056,
                -43.787611
              ],
              [
                -71.915424,
                -43.408565
              ],
              [
                -72.148898,
                -42.254888
              ],
              [
                -71.746804,
                -42.051386
              ],
              [
                -71.915734,
                -40.832339
              ],
              [
                -71.680761,
                -39.808164
              ],
              [
                -71.413517,
                -38.916022
              ],
              [
                -70.814664,
                -38.552995
              ],
              [
                -71.118625,
                -37.576827
              ],
              [
                -71.121881,
                -36.658124
              ],
              [
                -70.364769,
                -36.005089
              ],
              [
                -70.388049,
                -35.169688
              ],
              [
                -69.817309,
                -34.193571
              ],
              [
                -69.814777,
                -33.273886
              ],
              [
                -70.074399,
                -33.09121
              ],
              [
                -70.535069,
                -31.36501
              ],
              [
                -69.919008,
                -30.336339
              ],
              [
                -70.01355,
                -29.367923
              ],
              [
                -69.65613,
                -28.459141
              ],
              [
                -69.001235,
                -27.521214
              ],
              [
                -68.295542,
                -26.89934
              ],
              [
                -68.5948,
                -26.506909
              ],
              [
                -68.386001,
                -26.185016
              ],
              [
                -68.417653,
                -24.518555
              ],
              [
                -67.328443,
                -24.025303
              ],
              [
                -66.985234,
                -22.986349
              ],
              [
                -67.106674,
                -22.735925
              ],
              [
                -66.273339,
                -21.83231
              ],
              [
                -64.964892,
                -22.075862
              ]
            ]
          ]
        ]
      }
    },
    {
      "type": "Feature",
      "id": "DZA",
      "properties": {
        "name": "Algeria",
        "spend_1988": 1.75,
        "spend_2013": 4.95,
        "spend_avg": 3.13
      },
      "geometry": {
        "type": "Polygon",
        "coordinates": [
          [
            [
              11.999506,
              23.471668
            ],
            [
              8.572893,
              21.565661
            ],
            [
              5.677566,
              19.601207
            ],
            [
              4.267419,
              19.155265
            ],
            [
              3.158133,
              19.057364
            ],
            [
              3.146661,
              19.693579
            ],
            [
              2.683588,
              19.85623
            ],
            [
              2.060991,
              20.142233
            ],
            [
              1.823228,
              20.610809
            ],
            [
              -1.550055,
              22.792666
            ],
            [
              -4.923337,
              24.974574
            ],
            [
              -8.6844,
              27.395744
            ],
            [
              -8.665124,
              27.589479
            ],
            [
              -8.66559,
              27.656426
            ],
            [
              -8.674116,
              28.841289
            ],
            [
              -7.059228,
              29.579228
            ],
            [
              -6.060632,
              29.7317
            ],
            [
              -5.242129,
              30.000443
            ],
            [
              -4.859646,
              30.501188
            ],
            [
              -3.690441,
              30.896952
            ],
            [
              -3.647498,
              31.637294
            ],
            [
              -3.06898,
              31.724498
            ],
            [
              -2.616605,
              32.094346
            ],
            [
              -1.307899,
              32.262889
            ],
            [
              -1.124551,
              32.651522
            ],
            [
              -1.388049,
              32.864015
            ],
            [
              -1.733455,
              33.919713
            ],
            [
              -1.792986,
              34.527919
            ],
            [
              -2.169914,
              35.168396
            ],
            [
              -1.208603,
              35.714849
            ],
            [
              -0.127454,
              35.888662
            ],
            [
              0.503877,
              36.301273
            ],
            [
              1.466919,
              36.605647
            ],
            [
              3.161699,
              36.783905
            ],
            [
              4.815758,
              36.865037
            ],
            [
              5.32012,
              36.716519
            ],
            [
              6.26182,
              37.110655
            ],
            [
              7.330385,
              37.118381
            ],
            [
              7.737078,
              36.885708
            ],
            [
              8.420964,
              36.946427
            ],
            [
              8.217824,
              36.433177
            ],
            [
              8.376368,
              35.479876
            ],
            [
              8.140981,
              34.655146
            ],
            [
              7.524482,
              34.097376
            ],
            [
              7.612642,
              33.344115
            ],
            [
              8.430473,
              32.748337
            ],
            [
              8.439103,
              32.506285
            ],
            [
              9.055603,
              32.102692
            ],
            [
              9.48214,
              30.307556
            ],
            [
              9.805634,
              29.424638
            ],
            [
              9.859998,
              28.95999
            ],
            [
              9.683885,
              28.144174
            ],
            [
              9.756128,
              27.688259
            ],
            [
              9.629056,
              27.140953
            ],
            [
              9.716286,
              26.512206
            ],
            [
              9.319411,
              26.094325
            ],
            [
              9.910693,
              25.365455
            ],
            [
              9.948261,
              24.936954
            ],
            [
              10.303847,
              24.379313
            ],
            [
              10.771364,
              24.562532
            ],
            [
              11.560669,
              24.097909
            ],
            [
              11.999506,
              23.471668
            ]
          ]
        ]
      }
    }
  ]
}